0 CZ-4 DEB
1 26285U 99057FX  13282.16854666  .00032849  00000-0  29593-2 0   729
2 26285 098.4972 246.1231 0019562 234.1088 257.3144 14.95358590726877
0 CZ-4 DEB
1 26285U 99057FX  13283.17234571  .00029014  00000-0  26123-2 0   735
2 26285 098.4967 247.2108 0019575 230.4571 261.5283 14.95413603727022
0 CZ-4 DEB
1 26285U 99057FX  13283.48238097  .00049486  00000-0  44659-2 0   746
2 26285 098.4974 247.5436 0019701 229.5773 130.4237 14.95404198727078
0 CZ-4 DEB
1 26285U 99057FX  13284.17406654  .00028118  00000-0  25293-2 0   741
2 26285 098.4966 248.2967 0019832 227.2514 254.2951 14.95453047727175
0 CZ-4 DEB
1 26285U 99057FX  13286.83847348  .00028144  00000-0  25237-2 0   764
2 26285 098.4957 251.1840 0020037 216.7794 200.8323 14.95573114727572
0 CZ-4 DEB
1 26285U 99057FX  13288.18939292  .00045615  00000-0  40674-2 0   779
2 26285 098.4957 252.6482 0020236 211.6094 275.2270 14.95658219727777
0 CZ-4 DEB
1 26285U 99057FX  13288.84533487  .00032790  00000-0  29281-2 0   780
2 26285 098.4957 253.3593 0020219 208.3386 208.2361 14.95694215727870
0 CZ-4 DEB
1 26285U 99057FX  13290.13054550  .00032872  00000-0  29303-2 0   791
2 26285 098.4966 254.7522 0020417 204.2896 288.4680 14.95759066728060
0 CZ-4 DEB
1 26285U 99057FX  13291.40683623  .00028736  00000-0  25592-2 0   803
2 26285 098.4974 256.1355 0020568 199.5493 321.7001 14.95827902728259
0 CZ-4 DEB
1 26285U 99057FX  13292.85885485  .00034688  00000-0  30782-2 0   814
2 26285 098.4985 257.7099 0020738 194.2211 221.6333 14.95916800728467
0 CZ-4 DEB
1 26285U 99057FX  13294.86685450  .00039990  00000-0  35344-2 0   828
2 26285 098.4987 259.8875 0020983 186.3133 237.1299 14.96031287728765
0 CZ-4 DEB
1 26285U 99057FX  13295.47833539  .00035928  00000-0  31751-2 0   835
2 26285 098.4993 260.5513 0021114 184.7667 289.9757 14.96063021728867
